{
  "norad_id": 60923,
  "name": "STARLINK-32373",
  "history": [
    {
      "epoch": "2026-03-28T16:54:59.800320Z",
      "apogee_km": 476.02580639863663,
      "perigee_km": 474.4735143200651,
      "latitude_deg": 6.664335307356738e-05,
      "longitude_deg": 115.83230526521072,
      "height_km": 475.77234465826507,
      "semi_major_axis_km": 6853.386660359351,
      "eccentricity": 0.00011325,
      "inclination_deg": 53.1607,
      "raan_deg": 195.7029,
      "arg_perigee_deg": 61.0377,
      "mean_anomaly_deg": 299.0738,
      "mean_motion_rev_day": 15.30188415
    }
  ]
}