{"fetched_at":"2026-03-29T16:36:15Z","count":15609,"tles":[{"name":"STARLINK-32373","line1":"1 60923U 24154W   26087.70485880 -.00000210  00000+0  50504-5 0  9991","line2":"2 60923  53.1607 195.7029 0001132  61.0377 299.0738 15.30188415 89256","category":"Starlink"}]}